INTELSAT 902 (IS-902)   
1 26900U 01039A   26156.12548557 -.00000272  00000+0  00000+0 0  9997
2 26900   6.0880  71.9282 0004263   0.1971 176.5016  1.00271342 90570
INTELSAT 904 (IS-904)   
1 27380U 02007A   26156.10106553 -.00000215  00000+0  00000+0 0  9997
2 27380   6.8897  69.3289 0007249 359.5914 189.5118  1.00270660 51646
DIRECTV 5 (TEMPO 1)     
1 27426U 02023A   26156.14874779 -.00000046  00000+0  00000+0 0  9994
2 27426   4.8467  75.4595 0003504   5.9397 115.6338  1.00271839 88006
INTELSAT 905 (IS-905)   
1 27438U 02027A   26156.15288292  .00000105  00000+0  00000+0 0  9996
2 27438   6.7230  69.9446 0004203  12.2221  89.2472  1.00272462 51249
GALAXY 3C (G-3C)        
1 27445U 02030A   26155.60720097 -.00000141  00000+0  00000+0 0  9992
2 27445   3.6981  78.1438 0001947  28.6349 270.0137  1.00271868 46367
INTELSAT 906 (IS-906)   
1 27513U 02041A   26155.95650110  .00000024  00000+0  00000+0 0  9995
2 27513   5.7729  73.0696 0004675 356.6746 232.1342  1.00270467 86907
GALAXY 13 (HORIZONS-1)  
1 27954U 03044A   26156.10576961  .00000145  00000+0  00000+0 0  9991
2 27954   1.3890  84.0033 0002070 343.2165  74.3785  1.00271787 46457
INTELSAT 10-02          
1 28358U 04022A   26156.13521178  .00000000  00000+0  00000+0 0  9990
2 28358   0.0046 325.4366 0000140 359.4790 336.3305  1.00267347 80437
DIRECTV 8               
1 28659U 05019A   26156.11183630  .00000013  00000+0  00000+0 0  9990
2 28659   0.0177 337.6199 0003138  99.3173  97.8286  1.00271319 76953
GALAXY 28 (G-28)        
1 28702U 05022A   26156.13740818 -.00000188  00000+0  00000+0 0  9996
2 28702   3.2673  79.0786 0003088 357.7692 199.0943  1.00270660 51853
GALAXY 16 (G-16)        
1 29236U 06023A   26156.15633777 -.00000114  00000+0  00000+0 0  9997
2 29236   0.0086 184.7291 0002833 251.9959 134.1481  1.00269008 72856
DIRECTV 9S              
1 29494U 06043A   26156.11530296 -.00000102  00000+0  00000+0 0  9990
2 29494   2.3892  81.0466 0005176   3.8907 108.9395  1.00271960 51260
GALAXY 17 (G-17)        
1 31307U 07016B   26156.23260454 -.00000194  00000+0  00000+0 0  9997
2 31307   2.9415  80.0511 0004938  11.7836 160.5764  1.00272989 69688
INTELSAT 11 (IS-11)     
1 32253U 07044B   26155.62760481 -.00000139  00000+0  00000+0 0  9995
2 32253   3.5325  78.8209 0001650  74.4904 146.6760  0.99053533 68325
HORIZONS-2              
1 32388U 07063B   26156.14583568 -.00000242  00000+0  00000+0 0  9997
2 32388   2.5707  80.7728 0004180 352.2261 159.3069  1.00273497 67697
DIRECTV 11              
1 32729U 08013A   26155.90187811 -.00000113  00000+0  00000+0 0  9993
2 32729   0.0153 150.9196 0000575 236.0221  91.8989  1.00270355 45475
GALAXY 18 (G-18)        
1 32951U 08024A   26156.15936104  .00000037  00000+0  00000+0 0  9991
2 32951   0.0126  40.6774 0003286  43.4911 103.7894  1.00271772 45738
INTELSAT 25 (IS-25)     
1 33153U 08034A   26156.09892292 -.00000174  00000+0  00000+0 0  9992
2 33153   2.6771  80.4528 0001772  14.3380   9.9907  0.99015631 65574
GALAXY 19 (G-19)        
1 33376U 08045A   26156.16080824 -.00000127  00000+0  00000+0 0  9997
2 33376   0.0135  23.1340 0003468  67.2531 124.0997  1.00270614 64789
FM-5                    
1 35493U 09034A   26155.90447814 -.00000188  00000+0  00000+0 0  9992
2 35493   0.0114 298.9217 0000407  18.7070 175.1655  1.00272535 46526
INTELSAT 14 (IS-14)     
1 36097U 09064A   26156.12652558 -.00000261  00000+0  00000+0 0  9996
2 36097   0.0143 316.5176 0002899 131.9662 165.6405  1.00272573 60482
INTELSAT 15 (IS-15)     
1 36106U 09067A   26156.15228521 -.00000173  00000+0  00000+0 0  9994
2 36106   0.0137 320.4802 0002466 115.3754 317.7074  1.00272544 41102
DIRECTV 12              
1 36131U 09075A   26155.61030990 -.00000092  00000+0  00000+0 0  9992
2 36131   0.0403 147.4672 0000487 266.6647 315.9192  1.00273044 46427
INTELSAT 16 (IS-16)     
1 36397U 10006A   26156.16630376 -.00000233  00000+0  00000+0 0  9994
2 36397   0.0154  31.6295 0002262  54.0976 151.5643  1.00271928 59536
XM-5                    
1 37185U 10053A   26155.39972941 -.00000011  00000+0  00000+0 0  9997
2 37185   0.0616 274.3576 0002923 276.0478  91.1514  1.00272037 57356
INTELSAT 17 (IS-17)     
1 37238U 10065B   26156.14847184  .00000011  00000+0  00000+0 0  9992
2 37238   0.0070 294.2346 0002413 144.7480 294.0420  1.00271918 53121
INTELSAT 28 (IS-28)     
1 37392U 11016A   26156.13895581 -.00000213  00000+0  00000+0 0  9998
2 37392   1.7746  82.7703 0004051 351.3216 197.8293  1.00269992 53161
INTELSAT 18 (IS-18)     
1 37834U 11056A   26156.09978957  .00000065  00000+0  00000+0 0  9991
2 37834   0.0134 300.3596 0002243 145.8731  23.2304  1.00271729 53697
INTELSAT 22 (IS-22)     
1 38098U 12011A   26156.07846948 -.00000047  00000+0  00000+0 0  9999
2 38098   0.0117  41.3875 0001603  20.0852 292.3771  1.00273175  7064
INTELSAT 19 (IS-19)     
1 38356U 12030A   26155.92420593 -.00000044  00000+0  00000+0 0  9991
2 38356   0.0187 344.8550 0003207  95.6741 311.5561  1.00272096 50325
INTELSAT 20 (IS-20)     
1 38740U 12043A   26155.83149853 -.00000012  00000+0  00000+0 0  9994
2 38740   0.0098  81.5762 0001553  96.2799  83.2508  1.00271341 50624
